25943,GLOBALSTAR M057,1999,117.57,-1.0,-,52.0,Inactive,0,LEO,Kazakhstan,Globalstar,Unknown,Unknown,Unknown,1 25943U 99058A   24259.83237907 -.00000019  00000+0  67501-3 0  9997,2 25943  51.9998  46.8016 0002745 153.9755 206.1233 12.24796415133313,12.24796415,0.0002745,LEO
25944,GLOBALSTAR M059,1999,120.0,-1.0,-,52.0,Inactive,0,LEO,Kazakhstan,Globalstar,Unknown,Unknown,Unknown,1 25944U 99058B   24259.95366019 -.00000082  00000+0  46794-4 0  9990,2 25944  51.9997 229.0556 0000420  74.9610 320.5095 11.99965902541126,11.99965902,4.2e-05,LEO
25945,GLOBALSTAR M056,1999,119.52,-1.0,-,51.99,Inactive,0,LEO,Kazakhstan,Globalstar,Unknown,Unknown,Unknown,1 25945U 99058C   24259.96866478 -.00000108  00000+0 -23689-3 0  9993,2 25945  51.9943 238.0148 0001033 359.7851  33.9484 12.04777933129577,12.04777933,0.0001033,LEO
25946,GLOBALSTAR M031,1999,118.42,-1.0,-,52.0,Inactive,0,LEO,Kazakhstan,Globalstar,Unknown,Unknown,Unknown,1 25946U 99058D   24260.47411810 -.00000115  00000+0 -25033-3 0  9991,2 25946  51.9947 145.3500 0001738   7.5100 164.2851 12.16016471131486,12.16016471,0.0001738,LEO
25961,GLOBALSTAR M039,1999,114.08,-1.0,-,51.99,Inactive,0,LEO,Kazakhstan,Globalstar,Unknown,Unknown,Unknown,1 25961U 99062A   24259.72411662 -.00000069  00000+0  19354-3 0  9990,2 25961  51.9871  24.6621 0003494 101.0964 259.0295 12.62302915145551,12.62302915,0.0003494,LEO
25962,GLOBALSTAR M034,1999,122.09,-1.0,-,51.99,Inactive,0,LEO,Kazakhstan,Globalstar,Unknown,Unknown,Unknown,1 25962U 99062B   24259.60751289 -.00000038  00000+0  67467-3 0  9994,2 25962  51.9909   5.1293 0013595 240.9441 132.1636 11.79432312105995,11.79432312,0.0013595,LEO
25963,GLOBALSTAR M029,1999,120.01,-1.0,-,51.98,Inactive,0,LEO,Kazakhstan,Globalstar,Unknown,Unknown,Unknown,1 25963U 99062C   24260.39245162 -.00000067  00000+0  23584-3 0  9995,2 25963  51.9786 116.1405 0002109 317.4138 215.0599 11.99883011136305,11.99883011,0.0002109,LEO
25964,GLOBALSTAR M061,1999,122.37,-1.0,-,51.98,Inactive,0,LEO,Kazakhstan,Globalstar,Unknown,Unknown,Unknown,1 25964U 99062D   24259.93787019 -.00000069  00000+0  17758-3 0  9994,2 25964  51.9781 184.6688 0005673 164.9770 271.1856 11.76765296 88898,11.76765296,0.0005673,LEO
